[{"OBJECT_NAME":"STARLINK-35133","OBJECT_ID":"2025-200R","EPOCH":"2026-03-09T18:10:28.645536","MEAN_MOTION":15.05660939,"ECCENTRICITY":2.492e-5,"INCLINATION":97.6015,"RA_OF_ASC_NODE":139.905,"ARG_OF_PERICENTER":127.2074,"MEAN_ANOMALY":232.9175,"EPHEMERIS_TYPE":0,"CLASSIFICATION_TYPE":"U","NORAD_CAT_ID":65535,"ELEMENT_SET_NO":999,"REV_AT_EPOCH":2914,"BSTAR":0.00021803738,"MEAN_MOTION_DOT":3.088e-5,"MEAN_MOTION_DDOT":0},{"OBJECT_NAME":"PSLV DEB","OBJECT_ID":"2001-049CY","EPOCH":"2026-03-09T18:20:37.296384","MEAN_MOTION":15.08389698,"ECCENTRICITY":0.00190632,"INCLINATION":97.9861,"RA_OF_ASC_NODE":156.2845,"ARG_OF_PERICENTER":340.3269,"MEAN_ANOMALY":19.722,"EPHEMERIS_TYPE":0,"CLASSIFICATION_TYPE":"U","NORAD_CAT_ID":27152,"ELEMENT_SET_NO":999,"REV_AT_EPOCH":30598,"BSTAR":0.00053695108,"MEAN_MOTION_DOT":8.318e-5,"MEAN_MOTION_DDOT":0}]
